<?xml version="1.0" encoding="UTF-8"?>
<gpx xmlns="http://www.topografix.com/GPX/1/1" version="1.1" creator="VeloGPX fixture">
  <metadata>
    <name>EuroVelo assembly demo</name>
    <desc>Two intentionally separate Swiss bicycle-route source tracks.</desc>
  </metadata>
  <wpt lat="47.37630" lon="8.54170"><name>Zürich water stop</name><sym>Drinking Water</sym></wpt>
  <trk>
    <name>Source A — Zürich</name>
    <trkseg>
      <trkpt lat="47.37690" lon="8.54170"><ele>408</ele><time>2026-07-21T08:00:00Z</time></trkpt>
      <trkpt lat="47.37400" lon="8.53500"><ele>405</ele><time>2026-07-21T08:03:00Z</time></trkpt>
      <trkpt lat="47.37000" lon="8.52800"><ele>402</ele><time>2026-07-21T08:07:00Z</time></trkpt>
      <trkpt lat="47.36600" lon="8.52000"><ele>404</ele><time>2026-07-21T08:12:00Z</time></trkpt>
    </trkseg>
  </trk>
  <trk>
    <name>Source B — lakeside continuation</name>
    <trkseg>
      <trkpt lat="47.36450" lon="8.51700"><ele>405</ele></trkpt>
      <trkpt lat="47.35800" lon="8.52600"><ele>407</ele></trkpt>
      <trkpt lat="47.35100" lon="8.53700"><ele>409</ele></trkpt>
      <trkpt lat="47.34300" lon="8.54800"><ele>411</ele></trkpt>
    </trkseg>
  </trk>
</gpx>

